0 GEOSAT
1 15595U 85021A   13282.48491365  .00000089  00000-0  74831-4 0  4424
2 15595 108.0508 181.5109 0002353 275.1002 168.6114 14.37389757496813
0 GEOSAT
1 15595U 85021A   13283.79891155  .00000076  00000-0  70662-4 0  4435
2 15595 108.0510 184.2351 0002343 274.8449 125.9912 14.37390252497001
0 GEOSAT
1 15595U 85021A   13286.51979669  .00000092  00000-0  75792-4 0  4454
2 15595 108.0513 189.8762 0002294 274.2462 161.3551 14.37391239497396
0 GEOSAT
1 15595U 85021A   13287.76709979  .00000155  00000-0  96949-4 0  4465
2 15595 108.0513 192.4622 0002275 273.8452 133.8864 14.37392129497574
0 GEOSAT
1 15595U 85021A   13289.45203572  .00000133  00000-0  89750-4 0  4470
2 15595 108.0513 195.9555 0002273 273.1449 210.5408 14.37393527497811
0 GEOSAT
1 15595U 85021A   13290.69161847  .00000184  00000-0  10680-3 0  4488
2 15595 108.0513 198.5257 0002270 272.7508 143.1396 14.37394272497991
0 GEOSAT
1 15595U 85021A   13292.44675593  .00000191  00000-0  10899-3 0  4492
2 15595 108.0512 202.1647 0002238 272.3699 222.6306 14.37395163498249
0 GEOSAT
1 15595U 85021A   13293.48209346  .00000212  00000-0  11613-3 0  4507
2 15595 108.0512 204.3114 0002177 272.1796 178.4972 14.37395907498399
0 GEOSAT
1 15595U 85021A   13294.79404413  .00000247  00000-0  12769-3 0  4516
2 15595 108.0513 207.0317 0002195 271.8806 125.3630 14.37397009498581
0 GEOSAT
1 15595U 85021A   13296.21137734  .00000224  00000-0  12015-3 0  4524
2 15595 108.0514 209.9703 0002199 271.3037 257.6420 14.37398201498780
